ONEWEB-0208             
1 48243U 21031AK  24273.62401318  .00000232  00000+0  59132-3 0  9990
2 48243  87.8975  54.0981 0001858  92.5384 267.5958 13.14501061166127
ONEWEB-0200             
1 48244U 21031AL  24273.81589741 -.00000263  00000+0 -74321-3 0  9992
2 48244  87.8972  54.0553 0001869  93.8961 266.2382 13.14503454166076
ONEWEB-0217             
1 48245U 21031AM  24273.83175986  .00000135  00000+0  32913-3 0  9994
2 48245  87.8973  54.0368 0002009  93.3472 266.7888 13.14504119166021
ONEWEB-0211             
1 48767U 21045A   24273.75167868  .00000115  00000+0  27233-3 0  9996
2 48767  87.9112  23.6419 0001928 106.0675 254.0668 13.15548600162184
ONEWEB-0223             
1 48768U 21045B   24273.77386167  .00000124  00000+0  29435-3 0  9990
2 48768  87.9118  23.6483 0002274 112.1143 248.0229 13.15549631162175
ONEWEB-0230             
1 48769U 21045C   24273.74533116  .00000054  00000+0  10841-3 0  9999
2 48769  87.9111  23.7231 0001702 105.4072 254.7247 13.15550253162437
ONEWEB-0237             
1 48770U 21045D   24273.73424678 -.00000039  00000+0 -13686-3 0  9997
2 48770  87.9118  23.6625 0002082 109.7659 250.3696 13.15549966162150
ONEWEB-0235             
1 48771U 21045E   24273.86101370  .00000000  00000+0 -35224-4 0  9993
2 48771  87.9113  23.6395 0002283 116.5513 243.5852 13.15547020162166
ONEWEB-0242             
1 48772U 21045F   24273.85467379  .00000037  00000+0  63267-4 0  9994
2 48772  87.9115  23.6285 0001815 107.9754 252.1574 13.15549068162204
ONEWEB-0241             
1 48773U 21045G   24273.61382803  .00000235  00000+0  59034-3 0  9993
2 48773  87.9124  23.7329 0002232 102.0862 258.0518 13.15548821162080
ONEWEB-0243             
1 48774U 21045H   24273.56945756  .00000005  00000+0 -20694-4 0  9997
2 48774  87.9122  23.7013 0002167 115.0834 245.0521 13.15548946162100
ONEWEB-0222             
1 48775U 21045J   24273.85704706 -.00000013  00000+0 -68568-4 0  9990
2 48775  87.9112  23.6368 0002076 104.1119 256.0242 13.15549472162181
ONEWEB-0244             
1 48776U 21045K   24273.73107764 -.00000088  00000+0 -26795-3 0  9996
2 48776  87.9110  23.6426 0001755 106.3276 253.8048 13.15549115162730
ONEWEB-0247             
1 48777U 21045L   24273.72791285  .00000367  00000+0  93955-3 0  9993
2 48777  87.9117  23.6918 0002525 124.7257 235.4111 13.15547902162170
ONEWEB-0245             
1 48778U 21045M   24273.57104497  .00000021  00000+0  22244-4 0  9991
2 48778  87.9109  23.7064 0002054  99.1649 260.9714 13.15549194162124
ONEWEB-0229             
1 48779U 21045N   24273.56629152  .00000074  00000+0  16302-3 0  9996
2 48779  87.9113  23.7025 0001816 106.0521 254.0810 13.15548883162157
ONEWEB-0228             
1 48780U 21045P   24273.75086973  .00000125  00000+0  29789-3 0  9997
2 48780  87.9109  23.6466 0001861 104.2413 255.8924 13.15546148162092
ONEWEB-0232             
1 48781U 21045Q   24273.72632617 -.00000080  00000+0 -24541-3 0  9990
2 48781  87.9104  23.6600 0001836 102.1698 257.9638 13.15548386162419
ONEWEB-0231             
1 48782U 21045R   24273.85625656  .00000017  00000+0  11135-4 0  9994
2 48782  87.9123  23.6804 0001961 107.6447 252.4898 13.15548997162122
ONEWEB-0234             
1 48783U 21045S   24273.57183642 -.00001545  00000+0 -41380-2 0  9990
2 48783  87.9113  23.6880 0002703  67.3588 292.7828 13.15556864162222
ONEWEB-0238             
1 48784U 21045T   24273.75405670 -.00000420  00000+0 -11500-2 0  9991
2 48784  87.9113  23.6687 0001743  95.8617 264.2712 13.15550677162143
ONEWEB-0240             
1 48785U 21045U   24273.76356499  .00000156  00000+0  37922-3 0  9998
2 48785  87.9113  23.6339 0002216 102.7218 257.4160 13.15547646162175
ONEWEB-0246             
1 48786U 21045V   24273.75801521  .00000174  00000+0  42761-3 0  9996
2 48786  87.9115  23.6411 0001802 106.6386 253.4942 13.15549871162040
ONEWEB-0210             
1 48787U 21045W   24273.73266881 -.00000066  00000+0 -21048-3 0  9996
2 48787  87.9110  23.6493 0002162 124.5936 235.5399 13.15548213162086
ONEWEB-0214             
1 48788U 21045X   24273.74216772  .00000058  00000+0  11933-3 0  9993
2 48788  87.9110  23.6363 0001808 121.0597 239.0711 13.15548822162054
ONEWEB-0221             
1 48789U 21045Y   24273.59639797  .00000140  00000+0  33729-3 0  9992
2 48789  87.9115  23.6863 0002007 103.6882 256.4472 13.15551080162125
ONEWEB-0213             
1 48790U 21045Z   24273.73742035 -.00000003  00000+0 -42606-4 0  9995
2 48790  87.9113  23.6700 0002088 108.3506 251.7851 13.15548350162203
ONEWEB-0212             
1 48791U 21045AA  24273.56232852  .00000044  00000+0  84186-4 0  9990
2 48791  87.9116  23.6897 0001834  98.1068 262.0270 13.15549827162177
ONEWEB-0227             
1 48792U 21045AB  24273.56152344  .00001533  00000+0  40366-2 0  9992
2 48792  87.9115  23.7047 0001821 106.3194 253.8136 13.15541445163250
ONEWEB-0226             
1 48793U 21045AC  24273.85942775 -.00000049  00000+0 -16366-3 0  9997
2 48793  87.9115  23.6514 0002048 114.8142 245.3201 13.15546981162133
ONEWEB-0224             
1 48794U 21045AD  24273.74692805  .00000047  00000+0  89789-4 0  9998
2 48794  87.9118  23.6987 0002800  91.5128 268.6323 13.15548798162043
ONEWEB-0233             
1 48795U 21045AE  24273.75246312  .00000137  00000+0  33081-3 0  9991
2 48795  87.9116  23.7108 0002092 103.1077 257.0287 13.15546793162060
ONEWEB-0190             
1 48796U 21045AF  24273.73900898  .00000028  00000+0  40691-4 0  9991
2 48796  87.9117  23.6740 0002587 117.6271 242.5122 13.15547913162138
ONEWEB-0236             
1 48797U 21045AG  24273.60432217  .00000245  00000+0  61629-3 0  9997
2 48797  87.9122  23.6987 0001912 100.2761 259.8585 13.15547701163120
ONEWEB-0248             
1 48798U 21045AH  24273.76910925  .00000149  00000+0  36247-3 0  9993
2 48798  87.9114  23.6478 0002552 103.5909 256.5505 13.15549849162184
ONEWEB-0225             
1 48799U 21045AJ  24273.56312109  .00000110  00000+0  25824-3 0  9999
2 48799  87.9122  23.7060 0002192 108.7750 251.3618 13.15549668162168
ONEWEB-0215             
1 48800U 21045AK  24273.76116595  .00000214  00000+0  53387-3 0  9995
2 48800  87.9111  23.6344 0002594 107.7410 252.4003 13.15546601162064
ONEWEB-0216             
1 48801U 21045AL  24273.54252317  .00000238  00000+0  59752-3 0  9993
2 48801  87.9114  23.7200 0001664 110.3299 249.8010 13.15549428162048
ONEWEB-0239             
1 48802U 21045AM  24273.54727644  .00000125  00000+0  29859-3 0  9994
2 48802  87.9121  23.7038 0002771 104.6067 255.5371 13.15548257162082
ONEWEB-0249             
1 48967U 21060A   24273.67313121  .00000098  00000+0  22368-3 0  9995
2 48967  87.9168 353.3602 0001893  98.5224 261.6122 13.16594733157306
ONEWEB-0250             
1 48968U 21060B   24273.64935125  .00000021  00000+0  17889-4 0  9996
2 48968  87.9169 353.1574 0002613  98.4844 261.6588 13.25564537157330
ONEWEB-0252             
1 48970U 21060D   24273.93278399  .00000083  00000+0  18288-3 0  9995
2 48970  87.9171 353.3018 0001843 104.7705 255.3630 13.16595594157382
ONEWEB-0253             
1 48971U 21060E   24273.92169460  .00000063  00000+0  13227-3 0  9999
2 48971  87.9168 353.3141 0002100 106.2482 253.8880 13.16594598157318
ONEWEB-0254             
1 48972U 21060F   24273.70321288 -.00000006  00000+0 -49431-4 0  9990
2 48972  87.9170 353.3369 0002126 106.2048 253.9317 13.16595045157280
ONEWEB-0255             
1 48973U 21060G   24273.66520348  .00000070  00000+0  15020-3 0  9999
2 48973  87.9169 353.3785 0002261 103.8158 256.3224 13.16596706157353
ONEWEB-0256             
1 48974U 21060H   24273.91931538  .00000090  00000+0  20143-3 0  9999
2 48974  87.9172 353.3348 0001701 101.9257 258.2065 13.16596484157357
ONEWEB-0257             
1 48975U 21060J   24273.64778964  .00000024  00000+0  29551-4 0  9992
2 48975  87.9167 353.3561 0001905 107.2588 252.8751 13.16595743157271
ONEWEB-0258             
1 48976U 21060K   24273.64937792 -.00000033  00000+0 -11987-3 0  9994
2 48976  87.9170 353.3841 0001990  98.8271 261.3086 13.16594677157287
ONEWEB-0259             
1 48977U 21060L   24273.64305087 -.00000040  00000+0 -13873-3 0  9995
2 48977  87.9170 353.3699 0002170 100.0020 260.1356 13.16593858157319
ONEWEB-0260             
1 48978U 21060M   24273.48232524  .00000026  00000+0  34264-4 0  9993
2 48978  87.9172 353.4311 0001634 116.6485 243.4813 13.16593436157275
ONEWEB-0261             
1 48979U 21060N   24273.67945614 -.00002833  00000+0 -74449-2 0  9993
2 48979  87.9170 353.3882 0002199 114.8247 245.3113 13.16609047157358
ONEWEB-0262             
1 48980U 21060P   24273.66046706  .00000032  00000+0  51324-4 0  9994
2 48980  87.9166 353.3532 0002356 101.5024 258.6372 13.16593871157315
ONEWEB-0263             
1 48981U 21060Q   24273.92012395  .00000081  00000+0  17739-3 0  9996
2 48981  87.9171 353.3215 0002326 106.8933 253.2453 13.16594844157316
ONEWEB-0264             
1 48982U 21060R   24273.65332166  .00000053  00000+0  10423-3 0  9990
2 48982  87.9168 353.3845 0002010 102.8045 257.3310 13.16595022157284
ONEWEB-0266             
1 48984U 21060T   24273.67471942  .00000114  00000+0  26536-3 0  9990
2 48984  87.9168 353.3555 0001891  96.6659 263.4687 13.16597081157272
ONEWEB-0267             
1 48985U 21060U   24273.45780257  .00000185  00000+0  45027-3 0  9993
2 48985  87.9170 353.4002 0002079 110.4712 249.6642 13.16595386157259
ONEWEB-0268             
1 48986U 21060V   24273.65412751  .00000056  00000+0  11239-3 0  9992
2 48986  87.9167 353.3674 0001789 105.4474 254.6854 13.16594015157547
ONEWEB-0269             
1 48987U 21060W   24273.48313568  .00000070  00000+0  14894-3 0  9996
2 48987  87.9173 353.4297 0001836 100.5989 259.5349 13.16593936157293
ONEWEB-0270             
1 48988U 21060X   24273.65254250  .00000027  00000+0  37248-4 0  9999
2 48988  87.9167 353.3747 0002428 106.8855 253.2542 13.16595562157355
